{
  "type": "FeatureCollection",
  "features": [
    {
      "type": "Feature",
      "properties": {
        "norad_id": 36073,
        "name": "COSMOS 2251 DEB",
        "group": "cosmos-2251-debris",
        "lat": -66.02151809253219,
        "lon": 166.20603195632324,
        "alt_km": 790.615189880762,
        "timestamp": "2025-12-21T16:47:55.136097+00:00",
        "meta_object_name": "COSMOS 2251 DEB",
        "meta_object_id": "1993-036AYL",
        "meta_epoch": "2025-12-18T03:58:06.481920",
        "meta_mean_motion": 14.34959898,
        "meta_eccentricity": 0.00240895,
        "meta_inclination": 74.0326,
        "meta_ra_of_asc_node": 312.6126,
        "meta_arg_of_pericenter": 19.0207,
        "meta_mean_anomaly": 341.1839,
        "meta_ephemeris_type": 0,
        "meta_classification_type": "U",
        "meta_norad_cat_id": 36073,
        "meta_element_set_no": 999,
        "meta_rev_at_epoch": 70285,
        "meta_bstar": 0.0001893667,
        "meta_mean_motion_dot": 5.14e-06,
        "meta_mean_motion_ddot": 0,
        "tle_line1": "1 36073U 93036AYL 25352.16535280  .00000514  00000+0  18937-3 0  9997",
        "tle_line2": "2 36073  74.0326 312.6126 0024089  19.0207 341.1839 14.34959898702857"
      },
      "geometry": {
        "type": "Point",
        "coordinates": [
          166.20603195632324,
          -66.02151809253219
        ]
      }
    },
    {
      "type": "Feature",
      "properties": {
        "norad_id": 36074,
        "name": "COSMOS 2251 DEB",
        "group": "cosmos-2251-debris",
        "lat": -45.570964516459405,
        "lon": -53.243066439726725,
        "alt_km": 757.878581259386,
        "timestamp": "2025-12-21T16:47:55.136107+00:00",
        "meta_object_name": "COSMOS 2251 DEB",
        "meta_object_id": "1993-036AYM",
        "meta_epoch": "2025-12-17T04:55:34.739616",
        "meta_mean_motion": 14.43760583,
        "meta_eccentricity": 0.00415505,
        "meta_inclination": 73.9924,
        "meta_ra_of_asc_node": 332.1608,
        "meta_arg_of_pericenter": 62.4035,
        "meta_mean_anomaly": 298.1332,
        "meta_ephemeris_type": 0,
        "meta_classification_type": "U",
        "meta_norad_cat_id": 36074,
        "meta_element_set_no": 999,
        "meta_rev_at_epoch": 85974,
        "meta_bstar": 0.00075567049,
        "meta_mean_motion_dot": 2.571e-05,
        "meta_mean_motion_ddot": 0,
        "tle_line1": "1 36074U 93036AYM 25351.20526319  .00002571  00000+0  75567-3 0  9992",
        "tle_line2": "2 36074  73.9924 332.1608 0041550  62.4035 298.1332 14.43760583859746"
      },
      "geometry": {
        "type": "Point",
        "coordinates": [
          -53.243066439726725,
          -45.570964516459405
        ]
      }
    },
    {
      "type": "Feature",
      "properties": {
        "norad_id": 36366,
        "name": "COSMOS 2251 DEB",
        "group": "cosmos-2251-debris",
        "lat": -73.50025940643053,
        "lon": -177.96784675619313,
        "alt_km": 723.2899752552948,
        "timestamp": "2025-12-21T16:47:55.136117+00:00",
        "meta_object_name": "COSMOS 2251 DEB",
        "meta_object_id": "1993-036AYT",
        "meta_epoch": "2025-12-21T02:07:04.596096",
        "meta_mean_motion": 14.33456024,
        "meta_eccentricity": 0.00902565,
        "meta_inclination": 74.066,
        "meta_ra_of_asc_node": 257.8285,
        "meta_arg_of_pericenter": 284.4173,
        "meta_mean_anomaly": 74.6975,
        "meta_ephemeris_type": 0,
        "meta_classification_type": "U",
        "meta_norad_cat_id": 36366,
        "meta_element_set_no": 999,
        "meta_rev_at_epoch": 86408,
        "meta_bstar": 0.00088330891,
        "meta_mean_motion_dot": 2.527e-05,
        "meta_mean_motion_ddot": 0,
        "tle_line1": "1 36366U 93036AYT 25355.08824764  .00002527  00000+0  88331-3 0  9995",
        "tle_line2": "2 36366  74.0660 257.8285 0090256 284.4173  74.6975 14.33456024864083"
      },
      "geometry": {
        "type": "Point",
        "coordinates": [
          -177.96784675619313,
          -73.50025940643053
        ]
      }
    },
    {
      "type": "Feature",
      "properties": {
        "norad_id": 36367,
        "name": "COSMOS 2251 DEB",
        "group": "cosmos-2251-debris",
        "lat": -48.85191038934154,
        "lon": 55.344259009066825,
        "alt_km": 836.5475005787812,
        "timestamp": "2025-12-21T16:47:55.136127+00:00",
        "meta_object_name": "COSMOS 2251 DEB",
        "meta_object_id": "1993-036AYU",
        "meta_epoch": "2025-12-20T08:29:16.285344",
        "meta_mean_motion": 13.86366524,
        "meta_eccentricity": 0.02619085,
        "meta_inclination": 74.1004,
        "meta_ra_of_asc_node": 218.5774,
        "meta_arg_of_pericenter": 289.7911,
        "meta_mean_anomaly": 67.515,
        "meta_ephemeris_type": 0,
        "meta_classification_type": "U",
        "meta_norad_cat_id": 36367,
        "meta_element_set_no": 999,
        "meta_rev_at_epoch": 57635,
        "meta_bstar": 0.0011101793,
        "meta_mean_motion_dot": 1.658e-05,
        "meta_mean_motion_ddot": 0,
        "tle_line1": "1 36367U 93036AYU 25354.35366071  .00001658  00000+0  11102-2 0  9992",
        "tle_line2": "2 36367  74.1004 218.5774 0261908 289.7911  67.5150 13.86366524576354"
      },
      "geometry": {
        "type": "Point",
        "coordinates": [
          55.344259009066825,
          -48.85191038934154
        ]
      }
    },
    {
      "type": "Feature",
      "properties": {
        "norad_id": 36369,
        "name": "COSMOS 2251 DEB",
        "group": "cosmos-2251-debris",
        "lat": -31.446346634580017,
        "lon": 43.166886829240646,
        "alt_km": 661.9801055301223,
        "timestamp": "2025-12-21T16:47:55.136137+00:00",
        "meta_object_name": "COSMOS 2251 DEB",
        "meta_object_id": "1993-036AYW",
        "meta_epoch": "2025-12-21T10:25:50.498400",
        "meta_mean_motion": 14.73682344,
        "meta_eccentricity": 0.0010476,
        "meta_inclination": 74.0314,
        "meta_ra_of_asc_node": 53.7689,
        "meta_arg_of_pericenter": 128.4088,
        "meta_mean_anomaly": 231.8027,
        "meta_ephemeris_type": 0,
        "meta_classification_type": "U",
        "meta_norad_cat_id": 36369,
        "meta_element_set_no": 999,
        "meta_rev_at_epoch": 86050,
        "meta_bstar": 0.00084133,
        "meta_mean_motion_dot": 5.466e-05,
        "meta_mean_motion_ddot": 0,
        "tle_line1": "1 36369U 93036AYW 25355.43461225  .00005466  00000+0  84133-3 0  9997",
        "tle_line2": "2 36369  74.0314  53.7689 0010476 128.4088 231.8027 14.73682344860509"
      },
      "geometry": {
        "type": "Point",
        "coordinates": [
          43.166886829240646,
          -31.446346634580017
        ]
      }
    },
    {
      "type": "Feature",
      "properties": {
        "norad_id": 36371,
        "name": "COSMOS 2251 DEB",
        "group": "cosmos-2251-debris",
        "lat": 35.727449952341395,
        "lon": -47.781842803141195,
        "alt_km": 651.0169561478906,
        "timestamp": "2025-12-21T16:47:55.136147+00:00",
        "meta_object_name": "COSMOS 2251 DEB",
        "meta_object_id": "1993-036AYY",
        "meta_epoch": "2025-12-20T18:55:49.351296",
        "meta_mean_motion": 14.70759201,
        "meta_eccentricity": 0.00090109,
        "meta_inclination": 74.0126,
        "meta_ra_of_asc_node": 145.8897,
        "meta_arg_of_pericenter": 185.2625,
        "meta_mean_anomaly": 174.8453,
        "meta_ephemeris_type": 0,
        "meta_classification_type": "U",
        "meta_norad_cat_id": 36371,
        "meta_element_set_no": 999,
        "meta_rev_at_epoch": 71563,
        "meta_bstar": 0.0011784478,
        "meta_mean_motion_dot": 7.171e-05,
        "meta_mean_motion_ddot": 0,
        "tle_line1": "1 36371U 93036AYY 25354.78876564  .00007171  00000+0  11784-2 0  9999",
        "tle_line2": "2 36371  74.0126 145.8897 0009010 185.2625 174.8453 14.70759201715633"
      },
      "geometry": {
        "type": "Point",
        "coordinates": [
          -47.781842803141195,
          35.727449952341395
        ]
      }
    },
    {
      "type": "Feature",
      "properties": {
        "norad_id": 36379,
        "name": "COSMOS 2251 DEB",
        "group": "cosmos-2251-debris",
        "lat": -73.99553356511561,
        "lon": -161.4598294137322,
        "alt_km": 805.3019359624186,
        "timestamp": "2025-12-21T16:47:55.136158+00:00",
        "meta_object_name": "COSMOS 2251 DEB",
        "meta_object_id": "1993-036AZG",
        "meta_epoch": "2025-12-21T02:14:38.502816",
        "meta_mean_motion": 14.36091919,
        "meta_eccentricity": 0.00448164,
        "meta_inclination": 74.0129,
        "meta_ra_of_asc_node": 291.4624,
        "meta_arg_of_pericenter": 57.9805,
        "meta_mean_anomaly": 317.791,
        "meta_ephemeris_type": 0,
        "meta_classification_type": "U",
        "meta_norad_cat_id": 36379,
        "meta_element_set_no": 999,
        "meta_rev_at_epoch": 64948,
        "meta_bstar": 0.00021634378,
        "meta_mean_motion_dot": 6.11e-06,
        "meta_mean_motion_ddot": 0,
        "tle_line1": "1 36379U 93036AZG 25355.09350119  .00000611  00000+0  21634-3 0  9993",
        "tle_line2": "2 36379  74.0129 291.4624 0044816  57.9805 317.7910 14.36091919649480"
      },
      "geometry": {
        "type": "Point",
        "coordinates": [
          -161.4598294137322,
          -73.99553356511561
        ]
      }
    }
  ]
}